start=new Date('2022-08-03T00:00:00.000Z').valueOf();
sats=[{"DECAY_DATE":null,"GP_ID":"209425365","MEAN_ANOMALY":"259.0739","BSTAR":"0.00009374900000","OBJECT_NAME":"STARLINK-1174","EPOCH":"2022-08-02T13:50:13.384320","LAUNCH_DATE":"2020-01-29","MEAN_ELEMENT_THEORY":"SGP4","SEMIMAJOR_AXIS":"6925.352","SITE":"AFETR","OBJECT_ID":"2020-006AH","CENTER_NAME":"EARTH","COUNTRY_CODE":"US","REF_FRAME":"TEME","APOAPSIS":"548.248","PERIAPSIS":"546.187","TIME_SYSTEM":"UTC","OBJECT_TYPE":"PAYLOAD","TLE_LINE1":"1 45075U 20006AH  22214.57654380  .00001115  00000-0  93749-4 0  9992","MEAN_MOTION":"15.06398724","CLASSIFICATION_TYPE":"U","EPHEMERIS_TYPE":"0","MEAN_MOTION_DDOT":"0.0000000000000","FILE":"3527697","RA_OF_ASC_NODE":"50.3820","ELEMENT_SET_NO":"999","PERIOD":"95.592","REV_AT_EPOCH":"13852","NORAD_CAT_ID":"45075","RCS_SIZE":"LARGE","ARG_OF_PERICENTER":"101.0418","MEAN_MOTION_DOT":"0.00001115","TLE_LINE2":"2 45075  53.0563  50.3820 0001488 101.0418 259.0739 15.06398724138528","INCLINATION":"53.0563","ECCENTRICITY":"0.00014880"},{"BSTAR":"-0.00001141800000","MEAN_ANOMALY":"274.3965","MEAN_ELEMENT_THEORY":"SGP4","LAUNCH_DATE":"2020-01-29","EPOCH":"2022-08-02T20:21:39.369312","OBJECT_NAME":"STARLINK-1180","GP_ID":"209453581","DECAY_DATE":null,"REF_FRAME":"TEME","APOAPSIS":"548.215","OBJECT_TYPE":"PAYLOAD","PERIAPSIS":"546.279","TIME_SYSTEM":"UTC","SITE":"AFETR","SEMIMAJOR_AXIS":"6925.382","CENTER_NAME":"EARTH","OBJECT_ID":"2020-006AJ","COUNTRY_CODE":"US","ELEMENT_SET_NO":"999","RA_OF_ASC_NODE":"49.1637","PERIOD":"95.593","REV_AT_EPOCH":"13856","TLE_LINE1":"1 45076U 20006AJ  22214.84837233 -.00000451  00000-0 -11418-4 0  9990","MEAN_MOTION":"15.06389149","MEAN_MOTION_DDOT":"0.0000000000000","FILE":"3527804","CLASSIFICATION_TYPE":"U","EPHEMERIS_TYPE":"0","TLE_LINE2":"2 45076  53.0556  49.1637 0001398  85.7184 274.3965 15.06389149138567","MEAN_MOTION_DOT":"-0.00000451","INCLINATION":"53.0556","ECCENTRICITY":"0.00013980","NORAD_CAT_ID":"45076","ARG_OF_PERICENTER":"85.7184","RCS_SIZE":"LARGE"},{"TLE_LINE1":"1 45078U 20006AL  22214.53600643  .00000525  00000-0  54135-4 0  9994","MEAN_MOTION":"15.06398547","MEAN_MOTION_DDOT":"0.0000000000000","FILE":"3527697","CLASSIFICATION_TYPE":"U","EPHEMERIS_TYPE":"0","ELEMENT_SET_NO":"999","RA_OF_ASC_NODE":"50.5813","PERIOD":"95.592","REV_AT_EPOCH":"13850","NORAD_CAT_ID":"45078","ARG_OF_PERICENTER":"87.8450","RCS_SIZE":"LARGE","TLE_LINE2":"2 45078  53.0552  50.5813 0001294  87.8450 272.2687 15.06398547138505","MEAN_MOTION_DOT":"0.00000525","INCLINATION":"53.0552","ECCENTRICITY":"0.00012940","GP_ID":"209426367","DECAY_DATE":null,"BSTAR":"0.00005413500000","MEAN_ANOMALY":"272.2687","MEAN_ELEMENT_THEORY":"SGP4","LAUNCH_DATE":"2020-01-29","EPOCH":"2022-08-02T12:51:50.955552","OBJECT_NAME":"STARLINK-1177","SITE":"AFETR","SEMIMAJOR_AXIS":"6925.353","OBJECT_ID":"2020-006AL","CENTER_NAME":"EARTH","COUNTRY_CODE":"US","REF_FRAME":"TEME","APOAPSIS":"548.114","OBJECT_TYPE":"PAYLOAD","PERIAPSIS":"546.322","TIME_SYSTEM":"UTC"},{"TLE_LINE2":"2 45079  53.0571  48.8714 0001464 112.9354 247.1789 15.06391543138568","MEAN_MOTION_DOT":"-0.00000413","INCLINATION":"53.0571","ECCENTRICITY":"0.00014640","NORAD_CAT_ID":"45079","ARG_OF_PERICENTER":"112.9354","RCS_SIZE":"LARGE","RA_OF_ASC_NODE":"48.8714","ELEMENT_SET_NO":"999","PERIOD":"95.593","REV_AT_EPOCH":"13856","TLE_LINE1":"1 45079U 20006AM  22214.91103078 -.00000413  00000-0 -88044-5 0  9992","MEAN_MOTION":"15.06391543","MEAN_MOTION_DDOT":"0.0000000000000","FILE":"3527804","CLASSIFICATION_TYPE":"U","EPHEMERIS_TYPE":"0","REF_FRAME":"TEME","APOAPSIS":"548.253","OBJECT_TYPE":"PAYLOAD","PERIAPSIS":"546.226","TIME_SYSTEM":"UTC","SITE":"AFETR","SEMIMAJOR_AXIS":"6925.374","CENTER_NAME":"EARTH","OBJECT_ID":"2020-006AM","COUNTRY_CODE":"US","BSTAR":"-0.00000880440000","MEAN_ANOMALY":"247.1789","LAUNCH_DATE":"2020-01-29","EPOCH":"2022-08-02T21:51:53.059392","MEAN_ELEMENT_THEORY":"SGP4","OBJECT_NAME":"STARLINK-1149","DECAY_DATE":null,"GP_ID":"209452081"},{"SEMIMAJOR_AXIS":"6925.351","SITE":"AFETR","COUNTRY_CODE":"US","CENTER_NAME":"EARTH","OBJECT_ID":"2020-006AN","APOAPSIS":"548.247","REF_FRAME":"TEME","TIME_SYSTEM":"UTC","PERIAPSIS":"546.186","OBJECT_TYPE":"PAYLOAD","DECAY_DATE":null,"GP_ID":"209452831","MEAN_ANOMALY":"279.1808","BSTAR":"0.00000969400000","OBJECT_NAME":"STARLINK-1153","MEAN_ELEMENT_THEORY":"SGP4","LAUNCH_DATE":"2020-01-29","EPOCH":"2022-08-02T20:28:18.723072","NORAD_CAT_ID":"45080","RCS_SIZE":"LARGE","ARG_OF_PERICENTER":"80.9350","MEAN_MOTION_DOT":"-0.00000137","TLE_LINE2":"2 45080  53.0556  49.1488 0001488  80.9350 279.1808 15.06399100138565","ECCENTRICITY":"0.00014880","INCLINATION":"53.0556","MEAN_MOTION":"15.06399100","TLE_LINE1":"1 45080U 20006AN  22214.85299448 -.00000137  00000-0  96940-5 0  9990","EPHEMERIS_TYPE":"0","CLASSIFICATION_TYPE":"U","FILE":"3527804","MEAN_MOTION_DDOT":"0.0000000000000","PERIOD":"95.592","RA_OF_ASC_NODE":"49.1488","ELEMENT_SET_NO":"999","REV_AT_EPOCH":"13856"},{"DECAY_DATE":null,"GP_ID":"209426117","LAUNCH_DATE":"2020-01-29","MEAN_ELEMENT_THEORY":"SGP4","EPOCH":"2022-08-02T13:32:56.869440","OBJECT_NAME":"STARLINK-1151","BSTAR":"0.00000746780000","MEAN_ANOMALY":"282.9579","COUNTRY_CODE":"US","OBJECT_ID":"2020-006AP","CENTER_NAME":"EARTH","SITE":"AFETR","SEMIMAJOR_AXIS":"6925.362","OBJECT_TYPE":"PAYLOAD","TIME_SYSTEM":"UTC","PERIAPSIS":"546.321","APOAPSIS":"548.134","REF_FRAME":"TEME","FILE":"3527697","MEAN_MOTION_DDOT":"0.0000000000000","EPHEMERIS_TYPE":"0","CLASSIFICATION_TYPE":"U","MEAN_MOTION":"15.06395585","TLE_LINE1":"1 45081U 20006AP  22214.56454710 -.00000170  00000-0  74678-5 0  9995","REV_AT_EPOCH":"13852","PERIOD":"95.592","RA_OF_ASC_NODE":"50.4316","ELEMENT_SET_NO":"999","ARG_OF_PERICENTER":"77.1557","RCS_SIZE":"LARGE","NORAD_CAT_ID":"45081","ECCENTRICITY":"0.00013090","INCLINATION":"53.0547","TLE_LINE2":"2 45081  53.0547  50.4316 0001309  77.1557 282.9579 15.06395585138526","MEAN_MOTION_DOT":"-0.00000170"},{"COUNTRY_CODE":"US","CENTER_NAME":"EARTH","OBJECT_ID":"2020-006AQ","SITE":"AFETR","SEMIMAJOR_AXIS":"6925.341","OBJECT_TYPE":"PAYLOAD","TIME_SYSTEM":"UTC","PERIAPSIS":"546.017","APOAPSIS":"548.396","REF_FRAME":"TEME","DECAY_DATE":null,"GP_ID":"209453832","LAUNCH_DATE":"2020-01-29","MEAN_ELEMENT_THEORY":"SGP4","EPOCH":"2022-08-02T19:39:10.860480","OBJECT_NAME":"STARLINK-1160","BSTAR":"0.00012487000000","MEAN_ANOMALY":"284.6698","ARG_OF_PERICENTER":"75.4482","RCS_SIZE":"LARGE","NORAD_CAT_ID":"45082","ECCENTRICITY":"0.00017170","INCLINATION":"53.0564","TLE_LINE2":"2 45082  53.0564  49.3008 0001717  75.4482 284.6698 15.06402311138552","MEAN_MOTION_DOT":"0.00001579","FILE":"3527804","MEAN_MOTION_DDOT":"0.0000000000000","EPHEMERIS_TYPE":"0","CLASSIFICATION_TYPE":"U","MEAN_MOTION":"15.06402311","TLE_LINE1":"1 45082U 20006AQ  22214.81887570  .00001579  00000-0  12487-3 0  9999","REV_AT_EPOCH":"13855","PERIOD":"95.592","RA_OF_ASC_NODE":"49.3008","ELEMENT_SET_NO":"999"},{"TLE_LINE1":"1 45083U 20006AR  22214.51941559  .00000355  00000-0  42741-4 0  9993","MEAN_MOTION":"15.06403511","MEAN_MOTION_DDOT":"0.0000000000000","FILE":"3527697","CLASSIFICATION_TYPE":"U","EPHEMERIS_TYPE":"0","ELEMENT_SET_NO":"999","RA_OF_ASC_NODE":"70.6537","PERIOD":"95.592","REV_AT_EPOCH":"13823","NORAD_CAT_ID":"45083","ARG_OF_PERICENTER":"91.2454","RCS_SIZE":"LARGE","TLE_LINE2":"2 45083  53.0541  70.6537 0001469  91.2454 268.8703 15.06403511138230","MEAN_MOTION_DOT":"0.00000355","INCLINATION":"53.0541","ECCENTRICITY":"0.00014690","DECAY_DATE":null,"GP_ID":"209424617","BSTAR":"0.00004274100000","MEAN_ANOMALY":"268.8703","EPOCH":"2022-08-02T12:27:57.506976","LAUNCH_DATE":"2020-01-29","MEAN_ELEMENT_THEORY":"SGP4","OBJECT_NAME":"STARLINK-1190","SITE":"AFETR","SEMIMAJOR_AXIS":"6925.338","CENTER_NAME":"EARTH","OBJECT_ID":"2020-006AR","COUNTRY_CODE":"US","REF_FRAME":"TEME","APOAPSIS":"548.220","OBJECT_TYPE":"PAYLOAD","PERIAPSIS":"546.185","TIME_SYSTEM":"UTC"},{"RCS_SIZE":"LARGE","ARG_OF_PERICENTER":"87.6633","NORAD_CAT_ID":"45084","ECCENTRICITY":"0.00012790","INCLINATION":"53.0565","MEAN_MOTION_DOT":"0.00000570","TLE_LINE2":"2 45084  53.0565  28.9540 0001279  87.6633 272.4503 15.06406291138859","EPHEMERIS_TYPE":"0","CLASSIFICATION_TYPE":"U","FILE":"3527804","MEAN_MOTION_DDOT":"0.0000000000000","MEAN_MOTION":"15.06406291","TLE_LINE1":"1 45084U 20006AS  22214.89906326  .00000570  00000-0  57169-4 0  9997","REV_AT_EPOCH":"13885","PERIOD":"95.592","ELEMENT_SET_NO":"999","RA_OF_ASC_NODE":"28.9540","COUNTRY_CODE":"US","CENTER_NAME":"EARTH","OBJECT_ID":"2020-006AS","SEMIMAJOR_AXIS":"6925.329","SITE":"AFETR","TIME_SYSTEM":"UTC","PERIAPSIS":"546.309","OBJECT_TYPE":"PAYLOAD","APOAPSIS":"548.080","REF_FRAME":"TEME","GP_ID":"209452332","DECAY_DATE":null,"OBJECT_NAME":"STARLINK-1173","LAUNCH_DATE":"2020-01-29","MEAN_ELEMENT_THEORY":"SGP4","EPOCH":"2022-08-02T21:34:39.065664","MEAN_ANOMALY":"272.4503","BSTAR":"0.00005716900000"},{"NORAD_CAT_ID":"45085","RCS_SIZE":"LARGE","ARG_OF_PERICENTER":"87.2742","MEAN_MOTION_DOT":"-0.00000306","TLE_LINE2":"2 45085  53.0569  29.2558 0001363  87.2742 272.8403 15.06400763138848","INCLINATION":"53.0569","ECCENTRICITY":"0.00013630","TLE_LINE1":"1 45085U 20006AT  22214.82903638 -.00000306  00000-0 -16708-5 0  9998","MEAN_MOTION":"15.06400763","CLASSIFICATION_TYPE":"U","EPHEMERIS_TYPE":"0","MEAN_MOTION_DDOT":"0.0000000000000","FILE":"3527804","ELEMENT_SET_NO":"999","RA_OF_ASC_NODE":"29.2558","PERIOD":"95.592","REV_AT_EPOCH":"13884","SEMIMAJOR_AXIS":"6925.346","SITE":"AFETR","CENTER_NAME":"EARTH","OBJECT_ID":"2020-006AT","COUNTRY_CODE":"US","REF_FRAME":"TEME","APOAPSIS":"548.155","PERIAPSIS":"546.267","TIME_SYSTEM":"UTC","OBJECT_TYPE":"PAYLOAD","DECAY_DATE":null,"GP_ID":"209453582","MEAN_ANOMALY":"272.8403","BSTAR":"-0.00000167080000","OBJECT_NAME":"STARLINK-1179","MEAN_ELEMENT_THEORY":"SGP4","LAUNCH_DATE":"2020-01-29","EPOCH":"2022-08-02T19:53:48.743232"}];
